{
"type": "FeatureCollection",
"name": "sri_muktsar_sahib_adm2",
"crs": { "type": "name", "properties": { "name": "urn:ogc:def:crs:OGC:1.3:CRS84" } },
"features": [
{ "type": "Feature", "properties": { "shapeName": "Muktsar", "shapeISO": "", "shapeID": "76128533B50184713016881", "shapeGroup": "IND", "shapeType": "ADM2", "district_name_source": "Muktsar", "district_name_normalized": "Sri Muktsar Sahib", "area_km2_epsg32643": 2633.121932690115, "source_provider": "geoBoundaries", "source_dataset": "gbOpen IND ADM2", "real_or_synthetic": "REAL" }, "geometry": { "type": "Polygon", "coordinates": [ [ [ 74.70831, 29.9702 ], [ 74.70862, 29.97101 ], [ 74.70887, 29.97166 ], [ 74.70915, 29.97239 ], [ 74.7093, 29.97278 ], [ 74.70963, 29.97365 ], [ 74.71026, 29.97529 ], [ 74.71022, 29.97538 ], [ 74.7101, 29.97561 ], [ 74.70946, 29.97691 ], [ 74.70918, 29.97748 ], [ 74.70901, 29.97781 ], [ 74.70866, 29.9785 ], [ 74.70834, 29.9792 ], [ 74.70809, 29.97971 ], [ 74.70794, 29.98001 ], [ 74.70779, 29.98001 ], [ 74.70778, 29.98035 ], [ 74.70778, 29.98042 ], [ 74.70747, 29.98101 ], [ 74.70727, 29.98139 ], [ 74.70704, 29.98187 ], [ 74.70692, 29.98224 ], [ 74.70655, 29.98348 ], [ 74.70547, 29.98708 ], [ 74.71004, 29.99224 ], [ 74.71018, 29.99259 ], [ 74.71372, 30.00122 ], [ 74.71455, 30.00247 ], [ 74.71474, 30.00308 ], [ 74.71605, 30.00717 ], [ 74.71788, 30.01292 ], [ 74.71825, 30.01409 ], [ 74.71665, 30.01562 ], [ 74.71076, 30.02126 ], [ 74.70769, 30.02545 ], [ 74.70069, 30.0306 ], [ 74.69791, 30.03264 ], [ 74.69723, 30.03314 ], [ 74.69919, 30.03742 ], [ 74.69736, 30.0409 ], [ 74.69528, 30.04487 ], [ 74.70143, 30.05586 ], [ 74.7038, 30.0647 ], [ 74.70117, 30.06816 ], [ 74.69766, 30.06976 ], [ 74.69644, 30.07032 ], [ 74.69518, 30.0709 ], [ 74.69303, 30.07189 ], [ 74.68502, 30.07222 ], [ 74.68168, 30.07894 ], [ 74.67947, 30.08337 ], [ 74.67696, 30.08842 ], [ 74.68104, 30.0949 ], [ 74.68193, 30.09563 ], [ 74.68199, 30.09591 ], [ 74.68387, 30.0994 ], [ 74.68448, 30.10166 ], [ 74.68595, 30.10696 ], [ 74.68472, 30.1101 ], [ 74.68461, 30.11037 ], [ 74.68203, 30.11078 ], [ 74.67988, 30.11113 ], [ 74.6772, 30.10916 ], [ 74.67648, 30.10863 ], [ 74.67228, 30.10686 ], [ 74.66472, 30.10793 ], [ 74.65837, 30.10883 ], [ 74.65178, 30.11086 ], [ 74.65086, 30.11115 ], [ 74.6472, 30.11342 ], [ 74.64565, 30.11492 ], [ 74.63305, 30.12709 ], [ 74.63322, 30.12954 ], [ 74.63749, 30.13708 ], [ 74.63802, 30.13802 ], [ 74.64195, 30.14078 ], [ 74.64261, 30.14451 ], [ 74.64315, 30.14757 ], [ 74.65008, 30.15585 ], [ 74.65033, 30.15615 ], [ 74.65929, 30.16308 ], [ 74.6669, 30.16418 ], [ 74.67033, 30.16468 ], [ 74.67397, 30.16372 ], [ 74.67596, 30.16569 ], [ 74.68906, 30.16602 ], [ 74.68985, 30.16506 ], [ 74.69424, 30.1597 ], [ 74.70098, 30.159 ], [ 74.7059, 30.16013 ], [ 74.71146, 30.16266 ], [ 74.71299, 30.16344 ], [ 74.72091, 30.16695 ], [ 74.72682, 30.1705 ], [ 74.72709, 30.17066 ], [ 74.72986, 30.17319 ], [ 74.73235, 30.17547 ], [ 74.73498, 30.17787 ], [ 74.73791, 30.1806 ], [ 74.73808, 30.18122 ], [ 74.73899, 30.18464 ], [ 74.73837, 30.18844 ], [ 74.73755, 30.18937 ], [ 74.73139, 30.19637 ], [ 74.72627, 30.19685 ], [ 74.72149, 30.19588 ], [ 74.7158, 30.19661 ], [ 74.71705, 30.20379 ], [ 74.71791, 30.20877 ], [ 74.71988, 30.21707 ], [ 74.7206, 30.21874 ], [ 74.72294, 30.22097 ], [ 74.72267, 30.2236 ], [ 74.72243, 30.22591 ], [ 74.72632, 30.22852 ], [ 74.72811, 30.22972 ], [ 74.72785, 30.23099 ], [ 74.72446, 30.2336 ], [ 74.72282, 30.23824 ], [ 74.72259, 30.24122 ], [ 74.72258, 30.24135 ], [ 74.7218, 30.25168 ], [ 74.72395, 30.25759 ], [ 74.72421, 30.25786 ], [ 74.73416, 30.26833 ], [ 74.73544, 30.2707 ], [ 74.73695, 30.2725 ], [ 74.73864, 30.27452 ], [ 74.73829, 30.27728 ], [ 74.73896, 30.27898 ], [ 74.74086, 30.27931 ], [ 74.74523, 30.28008 ], [ 74.74527, 30.28011 ], [ 74.74857, 30.28169 ], [ 74.75142, 30.28345 ], [ 74.75344, 30.28535 ], [ 74.75318, 30.28557 ], [ 74.75159, 30.2869 ], [ 74.74519, 30.29224 ], [ 74.74177, 30.29691 ], [ 74.74113, 30.29756 ], [ 74.73557, 30.30321 ], [ 74.72976, 30.30441 ], [ 74.72672, 30.3077 ], [ 74.72966, 30.30914 ], [ 74.73454, 30.31153 ], [ 74.74349, 30.31591 ], [ 74.74766, 30.3209 ], [ 74.76249, 30.31918 ], [ 74.77142, 30.32313 ], [ 74.773, 30.32437 ], [ 74.77328, 30.32463 ], [ 74.78624, 30.335 ], [ 74.78614, 30.33506 ], [ 74.78508, 30.33578 ], [ 74.78132, 30.3357 ], [ 74.77925, 30.33618 ], [ 74.7499, 30.34291 ], [ 74.74984, 30.34292 ], [ 74.73507, 30.34767 ], [ 74.73266, 30.34811 ], [ 74.73142, 30.34834 ], [ 74.72512, 30.34949 ], [ 74.71685, 30.35195 ], [ 74.71207, 30.353 ], [ 74.70999, 30.35345 ], [ 74.7032, 30.35363 ], [ 74.70321, 30.35552 ], [ 74.7057, 30.35598 ], [ 74.71305, 30.35732 ], [ 74.71439, 30.35793 ], [ 74.71486, 30.35817 ], [ 74.7171, 30.35934 ], [ 74.72012, 30.36073 ], [ 74.72019, 30.36072 ], [ 74.72063, 30.36068 ], [ 74.72396, 30.36223 ], [ 74.72875, 30.36277 ], [ 74.72892, 30.36279 ], [ 74.72916, 30.36283 ], [ 74.74035, 30.35667 ], [ 74.74046, 30.35661 ], [ 74.74073, 30.35647 ], [ 74.74114, 30.35631 ], [ 74.74401, 30.35524 ], [ 74.74711, 30.35407 ], [ 74.7539, 30.35153 ], [ 74.7542, 30.35142 ], [ 74.75572, 30.35085 ], [ 74.75588, 30.35076 ], [ 74.75622, 30.35058 ], [ 74.76089, 30.34828 ], [ 74.76099, 30.34806 ], [ 74.76111, 30.34782 ], [ 74.76417, 30.34632 ], [ 74.78142, 30.33881 ], [ 74.78177, 30.33881 ], [ 74.78215, 30.33881 ], [ 74.78371, 30.33925 ], [ 74.78585, 30.3391 ], [ 74.7859, 30.33918 ], [ 74.78596, 30.33925 ], [ 74.786, 30.33928 ], [ 74.78606, 30.3393 ], [ 74.78612, 30.33929 ], [ 74.78626, 30.33924 ], [ 74.7864, 30.33914 ], [ 74.78655, 30.33905 ], [ 74.78675, 30.33895 ], [ 74.78705, 30.33886 ], [ 74.78717, 30.33882 ], [ 74.78727, 30.33883 ], [ 74.78736, 30.33886 ], [ 74.78747, 30.33892 ], [ 74.7888, 30.34082 ], [ 74.80181, 30.35942 ], [ 74.80838, 30.36881 ], [ 74.80869, 30.36926 ], [ 74.81276, 30.37695 ], [ 74.81795, 30.38673 ], [ 74.82325, 30.39289 ], [ 74.8181, 30.39559 ], [ 74.81783, 30.39573 ], [ 74.81699, 30.39617 ], [ 74.81446, 30.39856 ], [ 74.81249, 30.40042 ], [ 74.81103, 30.39926 ], [ 74.80963, 30.39813 ], [ 74.8086, 30.39828 ], [ 74.80177, 30.39926 ], [ 74.80115, 30.39919 ], [ 74.79945, 30.39901 ], [ 74.79859, 30.39892 ], [ 74.79683, 30.39873 ], [ 74.78891, 30.39647 ], [ 74.78359, 30.39646 ], [ 74.77496, 30.39645 ], [ 74.77403, 30.39645 ], [ 74.76657, 30.39393 ], [ 74.76383, 30.39301 ], [ 74.76298, 30.39272 ], [ 74.76227, 30.39248 ], [ 74.75874, 30.39129 ], [ 74.75828, 30.39153 ], [ 74.75803, 30.39167 ], [ 74.75785, 30.39177 ], [ 74.75493, 30.39334 ], [ 74.75442, 30.39362 ], [ 74.75513, 30.39568 ], [ 74.75601, 30.39824 ], [ 74.75569, 30.40335 ], [ 74.757, 30.40944 ], [ 74.7579, 30.41362 ], [ 74.75798, 30.414 ], [ 74.75903, 30.41892 ], [ 74.75863, 30.4233 ], [ 74.75425, 30.42691 ], [ 74.75452, 30.4276 ], [ 74.75553, 30.43021 ], [ 74.75663, 30.43302 ], [ 74.75495, 30.43419 ], [ 74.75351, 30.43519 ], [ 74.74689, 30.43978 ], [ 74.74147, 30.44356 ], [ 74.73857, 30.44556 ], [ 74.73737, 30.4464 ], [ 74.73706, 30.44694 ], [ 74.73644, 30.448 ], [ 74.73369, 30.45273 ], [ 74.73361, 30.45286 ], [ 74.73345, 30.45661 ], [ 74.73333, 30.45925 ], [ 74.73479, 30.46307 ], [ 74.73513, 30.46398 ], [ 74.73645, 30.4654 ], [ 74.74301, 30.47245 ], [ 74.74381, 30.47331 ], [ 74.74919, 30.47358 ], [ 74.75169, 30.47509 ], [ 74.7536, 30.47624 ], [ 74.75869, 30.47931 ], [ 74.75927, 30.47966 ], [ 74.76281, 30.48382 ], [ 74.76284, 30.48385 ], [ 74.76306, 30.48411 ], [ 74.76338, 30.48431 ], [ 74.76348, 30.48446 ], [ 74.764, 30.48521 ], [ 74.76316, 30.49005 ], [ 74.76302, 30.49085 ], [ 74.76047, 30.49608 ], [ 74.75164, 30.49021 ], [ 74.74857, 30.49286 ], [ 74.74359, 30.49287 ], [ 74.74316, 30.49287 ], [ 74.73801, 30.49288 ], [ 74.7322, 30.49749 ], [ 74.73196, 30.49768 ], [ 74.73071, 30.49867 ], [ 74.72893, 30.50009 ], [ 74.72502, 30.50243 ], [ 74.72128, 30.50341 ], [ 74.72042, 30.50886 ], [ 74.71567, 30.51119 ], [ 74.71413, 30.51194 ], [ 74.70833, 30.51478 ], [ 74.70002, 30.51634 ], [ 74.69468, 30.51806 ], [ 74.69255, 30.51874 ], [ 74.69124, 30.51916 ], [ 74.68863, 30.52073 ], [ 74.68832, 30.52191 ], [ 74.68787, 30.52501 ], [ 74.68806, 30.52665 ], [ 74.68844, 30.52946 ], [ 74.69154, 30.53068 ], [ 74.69377, 30.53206 ], [ 74.69672, 30.53388 ], [ 74.7016, 30.53843 ], [ 74.70196, 30.53894 ], [ 74.70528, 30.54358 ], [ 74.70663, 30.54448 ], [ 74.70846, 30.5457 ], [ 74.7103, 30.55285 ], [ 74.71145, 30.55732 ], [ 74.70676, 30.55919 ], [ 74.70575, 30.5596 ], [ 74.70179, 30.56304 ], [ 74.69674, 30.56516 ], [ 74.69672, 30.56516 ], [ 74.69542, 30.56544 ], [ 74.69461, 30.56561 ], [ 74.69119, 30.56635 ], [ 74.68611, 30.56884 ], [ 74.68543, 30.56939 ], [ 74.68086, 30.57305 ], [ 74.67667, 30.57497 ], [ 74.67299, 30.57665 ], [ 74.67185, 30.57718 ], [ 74.67169, 30.57725 ], [ 74.6706, 30.57768 ], [ 74.67046, 30.57775 ], [ 74.66932, 30.57835 ], [ 74.6693, 30.57838 ], [ 74.66711, 30.58285 ], [ 74.66631, 30.5837 ], [ 74.6645, 30.58563 ], [ 74.66386, 30.58631 ], [ 74.66002, 30.59039 ], [ 74.65587, 30.59119 ], [ 74.65351, 30.59164 ], [ 74.64835, 30.59357 ], [ 74.64369, 30.59832 ], [ 74.64364, 30.59837 ], [ 74.63918, 30.60291 ], [ 74.63887, 30.60323 ], [ 74.63868, 30.60342 ], [ 74.63574, 30.60641 ], [ 74.63601, 30.60913 ], [ 74.63633, 30.61229 ], [ 74.6348, 30.61258 ], [ 74.63092, 30.61332 ], [ 74.63076, 30.61335 ], [ 74.62957, 30.61358 ], [ 74.62897, 30.61369 ], [ 74.62839, 30.61494 ], [ 74.62776, 30.6163 ], [ 74.62675, 30.61846 ], [ 74.62647, 30.61937 ], [ 74.62644, 30.61947 ], [ 74.62639, 30.61961 ], [ 74.62299, 30.63051 ], [ 74.62158, 30.63502 ], [ 74.61989, 30.63735 ], [ 74.61391, 30.63642 ], [ 74.61032, 30.64087 ], [ 74.60859, 30.64177 ], [ 74.60671, 30.64274 ], [ 74.60661, 30.64281 ], [ 74.60646, 30.64291 ], [ 74.60577, 30.64337 ], [ 74.60127, 30.64468 ], [ 74.60079, 30.64548 ], [ 74.60013, 30.64657 ], [ 74.5992, 30.64736 ], [ 74.59911, 30.64743 ], [ 74.59874, 30.64775 ], [ 74.59804, 30.64835 ], [ 74.5943, 30.65153 ], [ 74.59425, 30.65157 ], [ 74.59167, 30.65377 ], [ 74.59156, 30.65387 ], [ 74.58675, 30.65524 ], [ 74.58555, 30.65558 ], [ 74.58538, 30.65563 ], [ 74.58438, 30.65592 ], [ 74.58108, 30.65739 ], [ 74.57866, 30.65847 ], [ 74.57431, 30.65963 ], [ 74.5741, 30.65969 ], [ 74.57266, 30.66008 ], [ 74.56456, 30.66224 ], [ 74.56196, 30.66294 ], [ 74.55505, 30.66397 ], [ 74.55142, 30.66451 ], [ 74.5508, 30.66434 ], [ 74.54947, 30.66398 ], [ 74.54894, 30.66384 ], [ 74.54879, 30.6638 ], [ 74.54714, 30.66336 ], [ 74.54596, 30.66341 ], [ 74.53972, 30.66366 ], [ 74.53373, 30.66511 ], [ 74.53032, 30.6651 ], [ 74.52242, 30.66508 ], [ 74.522, 30.66508 ], [ 74.5189, 30.66549 ], [ 74.51631, 30.66584 ], [ 74.5054, 30.6673 ], [ 74.50315, 30.66719 ], [ 74.5015, 30.666 ], [ 74.50114, 30.66574 ], [ 74.50062, 30.66537 ], [ 74.49506, 30.665 ], [ 74.49465, 30.66505 ], [ 74.49052, 30.66557 ], [ 74.48953, 30.6657 ], [ 74.48843, 30.66477 ], [ 74.48691, 30.66348 ], [ 74.48217, 30.65966 ], [ 74.48193, 30.65946 ], [ 74.47992, 30.65595 ], [ 74.47984, 30.65584 ], [ 74.47983, 30.65554 ], [ 74.47976, 30.6531 ], [ 74.48101, 30.64918 ], [ 74.48112, 30.64881 ], [ 74.48114, 30.64875 ], [ 74.48268, 30.64663 ], [ 74.48598, 30.64394 ], [ 74.48821, 30.64283 ], [ 74.48937, 30.64225 ], [ 74.49093, 30.64134 ], [ 74.49113, 30.64123 ], [ 74.49122, 30.64114 ], [ 74.49393, 30.63841 ], [ 74.49019, 30.63691 ], [ 74.48974, 30.63673 ], [ 74.4895, 30.63663 ], [ 74.48945, 30.63661 ], [ 74.48748, 30.63582 ], [ 74.48385, 30.63483 ], [ 74.47213, 30.63163 ], [ 74.47182, 30.63155 ], [ 74.47172, 30.63149 ], [ 74.46994, 30.63039 ], [ 74.46586, 30.62785 ], [ 74.46542, 30.62758 ], [ 74.46484, 30.62697 ], [ 74.46427, 30.6267 ], [ 74.46392, 30.62602 ], [ 74.46317, 30.62444 ], [ 74.46283, 30.62379 ], [ 74.46274, 30.62385 ], [ 74.46206, 30.62434 ], [ 74.46136, 30.62551 ], [ 74.46079, 30.62667 ], [ 74.45979, 30.62755 ], [ 74.45925, 30.62884 ], [ 74.45809, 30.62959 ], [ 74.45636, 30.63005 ], [ 74.45626, 30.63007 ], [ 74.45515, 30.63027 ], [ 74.45393, 30.6305 ], [ 74.45377, 30.63049 ], [ 74.45285, 30.63041 ], [ 74.4519, 30.62995 ], [ 74.45081, 30.62956 ], [ 74.44954, 30.62897 ], [ 74.44843, 30.62847 ], [ 74.44743, 30.62789 ], [ 74.4465, 30.6272 ], [ 74.44631, 30.62706 ], [ 74.4453, 30.62605 ], [ 74.44504, 30.62578 ], [ 74.44374, 30.62504 ], [ 74.44259, 30.62412 ], [ 74.44141, 30.62332 ], [ 74.4413, 30.62328 ], [ 74.44024, 30.62289 ], [ 74.43897, 30.62243 ], [ 74.43884, 30.62235 ], [ 74.43807, 30.62185 ], [ 74.43714, 30.62103 ], [ 74.43626, 30.62052 ], [ 74.43526, 30.61979 ], [ 74.43484, 30.61946 ], [ 74.43425, 30.61901 ], [ 74.43324, 30.61825 ], [ 74.43316, 30.61712 ], [ 74.43394, 30.61596 ], [ 74.43401, 30.61546 ], [ 74.43411, 30.61478 ], [ 74.43459, 30.6136 ], [ 74.43498, 30.61268 ], [ 74.43509, 30.61188 ], [ 74.43515, 30.61144 ], [ 74.43524, 30.61026 ], [ 74.43555, 30.60943 ], [ 74.43561, 30.60926 ], [ 74.43571, 30.60894 ], [ 74.43594, 30.60825 ], [ 74.43595, 30.60806 ], [ 74.43601, 30.60702 ], [ 74.43617, 30.60559 ], [ 74.43618, 30.60451 ], [ 74.43643, 30.60331 ], [ 74.43648, 30.60199 ], [ 74.43618, 30.60095 ], [ 74.43585, 30.59966 ], [ 74.43581, 30.5996 ], [ 74.43498, 30.59923 ], [ 74.43071, 30.59928 ], [ 74.43049, 30.59928 ], [ 74.42764, 30.59914 ], [ 74.42294, 30.59859 ], [ 74.42078, 30.59823 ], [ 74.41528, 30.59717 ], [ 74.41397, 30.59692 ], [ 74.41175, 30.5967 ], [ 74.40767, 30.59661 ], [ 74.40574, 30.59635 ], [ 74.40519, 30.59627 ], [ 74.40428, 30.59602 ], [ 74.40091, 30.5951 ], [ 74.39673, 30.59421 ], [ 74.3921, 30.5934 ], [ 74.39206, 30.5934 ], [ 74.38983, 30.59329 ], [ 74.38343, 30.59345 ], [ 74.38229, 30.59246 ], [ 74.38046, 30.59087 ], [ 74.38254, 30.58781 ], [ 74.38335, 30.58638 ], [ 74.3836, 30.58594 ], [ 74.38506, 30.5838 ], [ 74.38573, 30.58182 ], [ 74.38581, 30.5816 ], [ 74.38637, 30.5804 ], [ 74.38669, 30.57973 ], [ 74.3875, 30.57761 ], [ 74.38766, 30.57491 ], [ 74.38772, 30.57378 ], [ 74.38811, 30.57167 ], [ 74.38812, 30.56945 ], [ 74.38812, 30.56782 ], [ 74.38812, 30.56776 ], [ 74.38738, 30.56576 ], [ 74.38574, 30.5622 ], [ 74.38398, 30.55839 ], [ 74.38544, 30.55916 ], [ 74.38568, 30.55924 ], [ 74.38779, 30.55993 ], [ 74.3885, 30.56014 ], [ 74.39025, 30.56066 ], [ 74.39224, 30.56143 ], [ 74.39613, 30.56002 ], [ 74.40209, 30.55785 ], [ 74.4047, 30.5569 ], [ 74.40408, 30.55107 ], [ 74.40291, 30.53996 ], [ 74.40251, 30.53853 ], [ 74.40233, 30.53788 ], [ 74.40219, 30.5375 ], [ 74.40208, 30.53713 ], [ 74.40199, 30.53683 ], [ 74.40178, 30.53609 ], [ 74.40143, 30.53208 ], [ 74.40143, 30.53205 ], [ 74.40128, 30.53031 ], [ 74.39998, 30.5273 ], [ 74.3952, 30.52722 ], [ 74.39381, 30.5272 ], [ 74.38982, 30.52714 ], [ 74.37914, 30.51878 ], [ 74.3787, 30.51843 ], [ 74.37586, 30.51611 ], [ 74.37464, 30.51431 ], [ 74.3747, 30.51413 ], [ 74.37678, 30.50834 ], [ 74.37702, 30.50766 ], [ 74.37778, 30.5062 ], [ 74.37912, 30.50361 ], [ 74.38107, 30.49988 ], [ 74.38133, 30.49938 ], [ 74.38201, 30.49808 ], [ 74.38094, 30.49502 ], [ 74.38003, 30.49242 ], [ 74.37964, 30.49129 ], [ 74.37865, 30.48843 ], [ 74.3777, 30.4857 ], [ 74.37688, 30.48335 ], [ 74.37125, 30.48179 ], [ 74.3664, 30.48044 ], [ 74.36146, 30.48023 ], [ 74.36078, 30.4802 ], [ 74.36038, 30.48018 ], [ 74.35558, 30.48063 ], [ 74.34837, 30.48263 ], [ 74.34787, 30.48277 ], [ 74.34921, 30.47465 ], [ 74.34859, 30.47165 ], [ 74.3481, 30.4693 ], [ 74.3479, 30.46833 ], [ 74.34789, 30.46828 ], [ 74.34726, 30.46523 ], [ 74.34706, 30.46492 ], [ 74.34609, 30.46338 ], [ 74.34327, 30.45891 ], [ 74.34075, 30.45492 ], [ 74.3382, 30.45088 ], [ 74.3332, 30.44791 ], [ 74.33093, 30.44656 ], [ 74.32976, 30.44586 ], [ 74.32661, 30.44539 ], [ 74.32544, 30.44521 ], [ 74.32219, 30.44472 ], [ 74.31752, 30.44523 ], [ 74.31108, 30.44481 ], [ 74.31038, 30.44476 ], [ 74.30571, 30.44284 ], [ 74.30559, 30.44279 ], [ 74.30299, 30.44172 ], [ 74.29706, 30.43834 ], [ 74.28761, 30.43295 ], [ 74.2856, 30.4318 ], [ 74.283, 30.43068 ], [ 74.28057, 30.42963 ], [ 74.27661, 30.42989 ], [ 74.27517, 30.42922 ], [ 74.27097, 30.42727 ], [ 74.26673, 30.42663 ], [ 74.2605, 30.4257 ], [ 74.25697, 30.42517 ], [ 74.25374, 30.42385 ], [ 74.25314, 30.42359 ], [ 74.25288, 30.42349 ], [ 74.26, 30.42095 ], [ 74.26189, 30.42028 ], [ 74.26225, 30.42015 ], [ 74.26317, 30.41982 ], [ 74.26357, 30.41981 ], [ 74.26905, 30.41969 ], [ 74.27545, 30.41954 ], [ 74.27676, 30.41951 ], [ 74.28575, 30.41657 ], [ 74.29058, 30.41402 ], [ 74.29228, 30.41306 ], [ 74.29368, 30.41278 ], [ 74.30712, 30.41009 ], [ 74.31135, 30.40924 ], [ 74.31306, 30.409 ], [ 74.32347, 30.4075 ], [ 74.32485, 30.4073 ], [ 74.34548, 30.40432 ], [ 74.35067, 30.40304 ], [ 74.35534, 30.4019 ], [ 74.35689, 30.39981 ], [ 74.35861, 30.39747 ], [ 74.35934, 30.39148 ], [ 74.35946, 30.39045 ], [ 74.35867, 30.38824 ], [ 74.35631, 30.38159 ], [ 74.35599, 30.38067 ], [ 74.33838, 30.38418 ], [ 74.33695, 30.38439 ], [ 74.33122, 30.38525 ], [ 74.31797, 30.38724 ], [ 74.31381, 30.37889 ], [ 74.31283, 30.37692 ], [ 74.31017, 30.36898 ], [ 74.31001, 30.3685 ], [ 74.31108, 30.36454 ], [ 74.31206, 30.36094 ], [ 74.31218, 30.36051 ], [ 74.31296, 30.35765 ], [ 74.31784, 30.35519 ], [ 74.32002, 30.3541 ], [ 74.32193, 30.3471 ], [ 74.32268, 30.34434 ], [ 74.32261, 30.33578 ], [ 74.3226, 30.33482 ], [ 74.32253, 30.33001 ], [ 74.32253, 30.32994 ], [ 74.32256, 30.32877 ], [ 74.32256, 30.32863 ], [ 74.31894, 30.32243 ], [ 74.31877, 30.32214 ], [ 74.31854, 30.32174 ], [ 74.31434, 30.31751 ], [ 74.31264, 30.3158 ], [ 74.3079, 30.30904 ], [ 74.3054, 30.30547 ], [ 74.3057, 30.30413 ], [ 74.30669, 30.29976 ], [ 74.30632, 30.29848 ], [ 74.30544, 30.29648 ], [ 74.30489, 30.29548 ], [ 74.30404, 30.29075 ], [ 74.30367, 30.28951 ], [ 74.30337, 30.28777 ], [ 74.303, 30.28566 ], [ 74.30182, 30.27894 ], [ 74.29972, 30.2753 ], [ 74.29944, 30.27481 ], [ 74.29979, 30.27146 ], [ 74.30002, 30.26929 ], [ 74.29974, 30.26618 ], [ 74.29967, 30.26542 ], [ 74.29946, 30.26317 ], [ 74.29346, 30.26689 ], [ 74.284, 30.27276 ], [ 74.28036, 30.26846 ], [ 74.27906, 30.26692 ], [ 74.27843, 30.26618 ], [ 74.27729, 30.2658 ], [ 74.27207, 30.26056 ], [ 74.27173, 30.26022 ], [ 74.26976, 30.25824 ], [ 74.26842, 30.25595 ], [ 74.26792, 30.25509 ], [ 74.26435, 30.24897 ], [ 74.26343, 30.24741 ], [ 74.26312, 30.24724 ], [ 74.26303, 30.24713 ], [ 74.26227, 30.24628 ], [ 74.26614, 30.24403 ], [ 74.27157, 30.24087 ], [ 74.27184, 30.24071 ], [ 74.27278, 30.24015 ], [ 74.27338, 30.23979 ], [ 74.27957, 30.23618 ], [ 74.28059, 30.23558 ], [ 74.28272, 30.23433 ], [ 74.28483, 30.2331 ], [ 74.28803, 30.23123 ], [ 74.28987, 30.23167 ], [ 74.29521, 30.23295 ], [ 74.29742, 30.23408 ], [ 74.30467, 30.23778 ], [ 74.30835, 30.23878 ], [ 74.31137, 30.2396 ], [ 74.31302, 30.24005 ], [ 74.31373, 30.24024 ], [ 74.31476, 30.24052 ], [ 74.31691, 30.24111 ], [ 74.32233, 30.24191 ], [ 74.32244, 30.24191 ], [ 74.32589, 30.24179 ], [ 74.32615, 30.24181 ], [ 74.3281, 30.24166 ], [ 74.32946, 30.24156 ], [ 74.33048, 30.24148 ], [ 74.33423, 30.2412 ], [ 74.33861, 30.24087 ], [ 74.3447, 30.24041 ], [ 74.34892, 30.24009 ], [ 74.35735, 30.23945 ], [ 74.35776, 30.23942 ], [ 74.35808, 30.2394 ], [ 74.35775, 30.23781 ], [ 74.35769, 30.23753 ], [ 74.35718, 30.23502 ], [ 74.35651, 30.23171 ], [ 74.3561, 30.22967 ], [ 74.35525, 30.22551 ], [ 74.35469, 30.22277 ], [ 74.35448, 30.22173 ], [ 74.35407, 30.21972 ], [ 74.35317, 30.21527 ], [ 74.3531, 30.21497 ], [ 74.35253, 30.21213 ], [ 74.35131, 30.20905 ], [ 74.35122, 30.20882 ], [ 74.3502, 30.20623 ], [ 74.34985, 30.20535 ], [ 74.3488, 30.20268 ], [ 74.34777, 30.20008 ], [ 74.34737, 30.19906 ], [ 74.34639, 30.1966 ], [ 74.34636, 30.19651 ], [ 74.34638, 30.19644 ], [ 74.34657, 30.19575 ], [ 74.3478, 30.1913 ], [ 74.34828, 30.18958 ], [ 74.34784, 30.18689 ], [ 74.3478, 30.18661 ], [ 74.34776, 30.18639 ], [ 74.34771, 30.1861 ], [ 74.34765, 30.18573 ], [ 74.34762, 30.18555 ], [ 74.34759, 30.18538 ], [ 74.34745, 30.18448 ], [ 74.34727, 30.18338 ], [ 74.34717, 30.18279 ], [ 74.3469, 30.18217 ], [ 74.34589, 30.17984 ], [ 74.34503, 30.17786 ], [ 74.34488, 30.17752 ], [ 74.34476, 30.17725 ], [ 74.34467, 30.17705 ], [ 74.34453, 30.17672 ], [ 74.34221, 30.17138 ], [ 74.34197, 30.17082 ], [ 74.33993, 30.16615 ], [ 74.33784, 30.16135 ], [ 74.33829, 30.1611 ], [ 74.34316, 30.15839 ], [ 74.34765, 30.1559 ], [ 74.35357, 30.15407 ], [ 74.35675, 30.15311 ], [ 74.3605, 30.15256 ], [ 74.36999, 30.15154 ], [ 74.37104, 30.15139 ], [ 74.37132, 30.15134 ], [ 74.37153, 30.15131 ], [ 74.37162, 30.1513 ], [ 74.37187, 30.15126 ], [ 74.37196, 30.15125 ], [ 74.37217, 30.15122 ], [ 74.37245, 30.15118 ], [ 74.3727, 30.15114 ], [ 74.37321, 30.1507 ], [ 74.37343, 30.15067 ], [ 74.37542, 30.15038 ], [ 74.37603, 30.14454 ], [ 74.37661, 30.14347 ], [ 74.37847, 30.13826 ], [ 74.37857, 30.13809 ], [ 74.37904, 30.13734 ], [ 74.38213, 30.13234 ], [ 74.38247, 30.13033 ], [ 74.38294, 30.12761 ], [ 74.39252, 30.11917 ], [ 74.39373, 30.1181 ], [ 74.39702, 30.11519 ], [ 74.40181, 30.11267 ], [ 74.40228, 30.1115 ], [ 74.40343, 30.10861 ], [ 74.40655, 30.10413 ], [ 74.41075, 30.10018 ], [ 74.4132, 30.09788 ], [ 74.41369, 30.09742 ], [ 74.41378, 30.09734 ], [ 74.41411, 30.09702 ], [ 74.41415, 30.09698 ], [ 74.41612, 30.09513 ], [ 74.41085, 30.09317 ], [ 74.4106, 30.09308 ], [ 74.40839, 30.09436 ], [ 74.40798, 30.09524 ], [ 74.40793, 30.09534 ], [ 74.40701, 30.09729 ], [ 74.39633, 30.10512 ], [ 74.39601, 30.10535 ], [ 74.3864, 30.10926 ], [ 74.38547, 30.10964 ], [ 74.38492, 30.10986 ], [ 74.3825, 30.10944 ], [ 74.37845, 30.10875 ], [ 74.37515, 30.10756 ], [ 74.37444, 30.1073 ], [ 74.374, 30.10197 ], [ 74.37397, 30.10163 ], [ 74.37317, 30.09866 ], [ 74.37237, 30.09566 ], [ 74.36998, 30.09158 ], [ 74.36827, 30.08568 ], [ 74.36802, 30.08481 ], [ 74.37474, 30.08113 ], [ 74.37484, 30.08108 ], [ 74.38538, 30.0753 ], [ 74.38941, 30.0725 ], [ 74.38921, 30.07118 ], [ 74.38927, 30.06966 ], [ 74.38922, 30.06733 ], [ 74.38931, 30.06453 ], [ 74.38938, 30.06373 ], [ 74.3894, 30.06353 ], [ 74.38973, 30.06204 ], [ 74.39124, 30.05933 ], [ 74.39281, 30.05684 ], [ 74.39574, 30.05306 ], [ 74.39644, 30.05212 ], [ 74.404, 30.04307 ], [ 74.40554, 30.04189 ], [ 74.40641, 30.04122 ], [ 74.40785, 30.04011 ], [ 74.41168, 30.03716 ], [ 74.41128, 30.03521 ], [ 74.41095, 30.03359 ], [ 74.41029, 30.03039 ], [ 74.41019, 30.0299 ], [ 74.40943, 30.02623 ], [ 74.41131, 30.02558 ], [ 74.41843, 30.02312 ], [ 74.42044, 30.02307 ], [ 74.42322, 30.023 ], [ 74.42673, 30.02291 ], [ 74.42772, 30.02288 ], [ 74.43234, 30.0237 ], [ 74.45131, 30.02707 ], [ 74.45312, 30.02477 ], [ 74.45597, 30.02116 ], [ 74.45754, 30.01478 ], [ 74.46014, 30.00953 ], [ 74.46101, 30.00844 ], [ 74.46221, 30.00694 ], [ 74.46278, 30.00622 ], [ 74.46307, 30.00586 ], [ 74.46324, 30.00565 ], [ 74.46506, 30.00337 ], [ 74.46556, 30.00274 ], [ 74.45799, 30.00102 ], [ 74.45686, 30.00077 ], [ 74.45652, 30.00069 ], [ 74.44206, 29.99879 ], [ 74.4275, 29.99687 ], [ 74.42961, 29.99265 ], [ 74.43056, 29.99076 ], [ 74.43188, 29.98715 ], [ 74.43212, 29.98645 ], [ 74.43237, 29.98571 ], [ 74.43478, 29.98156 ], [ 74.436, 29.97945 ], [ 74.43873, 29.97446 ], [ 74.44118, 29.96957 ], [ 74.44144, 29.96905 ], [ 74.44158, 29.96877 ], [ 74.44362, 29.9647 ], [ 74.44597, 29.96001 ], [ 74.44676, 29.95843 ], [ 74.44742, 29.95711 ], [ 74.45181, 29.94836 ], [ 74.45254, 29.94691 ], [ 74.45262, 29.94674 ], [ 74.45468, 29.94636 ], [ 74.4608, 29.9461 ], [ 74.46988, 29.94555 ], [ 74.47632, 29.94514 ], [ 74.47757, 29.94502 ], [ 74.47779, 29.94502 ], [ 74.48135, 29.94487 ], [ 74.48688, 29.94472 ], [ 74.49779, 29.9437 ], [ 74.51173, 29.94331 ], [ 74.51976, 29.94309 ], [ 74.52282, 29.943 ], [ 74.52833, 29.94285 ], [ 74.52978, 29.94281 ], [ 74.53272, 29.94712 ], [ 74.53335, 29.94805 ], [ 74.53374, 29.94862 ], [ 74.53538, 29.95101 ], [ 74.53682, 29.94931 ], [ 74.54068, 29.94474 ], [ 74.54097, 29.9444 ], [ 74.54258, 29.94338 ], [ 74.54397, 29.9425 ], [ 74.55314, 29.9367 ], [ 74.55679, 29.93439 ], [ 74.55974, 29.93253 ], [ 74.5618, 29.9298 ], [ 74.56272, 29.92859 ], [ 74.56764, 29.92862 ], [ 74.57257, 29.92865 ], [ 74.57326, 29.92843 ], [ 74.58367, 29.92519 ], [ 74.58419, 29.92469 ], [ 74.58528, 29.92364 ], [ 74.58576, 29.92318 ], [ 74.59158, 29.91758 ], [ 74.59651, 29.91403 ], [ 74.60544, 29.91229 ], [ 74.60689, 29.912 ], [ 74.60802, 29.91178 ], [ 74.6117, 29.91106 ], [ 74.62818, 29.90784 ], [ 74.63276, 29.90695 ], [ 74.63669, 29.90539 ], [ 74.63713, 29.90517 ], [ 74.64338, 29.90481 ], [ 74.6501, 29.90315 ], [ 74.65037, 29.90308 ], [ 74.65588, 29.90361 ], [ 74.65771, 29.90378 ], [ 74.65526, 29.90676 ], [ 74.65436, 29.90785 ], [ 74.65055, 29.91248 ], [ 74.64964, 29.91359 ], [ 74.65049, 29.92032 ], [ 74.65066, 29.92164 ], [ 74.65536, 29.926 ], [ 74.65975, 29.93006 ], [ 74.66433, 29.93298 ], [ 74.66847, 29.93563 ], [ 74.67486, 29.93971 ], [ 74.67655, 29.94079 ], [ 74.67956, 29.94228 ], [ 74.68273, 29.94382 ], [ 74.68492, 29.94487 ], [ 74.68499, 29.94491 ], [ 74.68532, 29.94507 ], [ 74.68571, 29.94526 ], [ 74.68714, 29.94595 ], [ 74.68955, 29.94714 ], [ 74.69072, 29.94771 ], [ 74.69102, 29.94785 ], [ 74.69184, 29.94825 ], [ 74.69187, 29.94841 ], [ 74.69197, 29.94888 ], [ 74.69203, 29.94917 ], [ 74.69215, 29.94976 ], [ 74.6922, 29.95 ], [ 74.69223, 29.95013 ], [ 74.69243, 29.95135 ], [ 74.69248, 29.95162 ], [ 74.69254, 29.95194 ], [ 74.69268, 29.95267 ], [ 74.69309, 29.95482 ], [ 74.6933, 29.95594 ], [ 74.69333, 29.95609 ], [ 74.69347, 29.95684 ], [ 74.69356, 29.95731 ], [ 74.69358, 29.95742 ], [ 74.69375, 29.95832 ], [ 74.6939, 29.95911 ], [ 74.69395, 29.95937 ], [ 74.69409, 29.96011 ], [ 74.6941, 29.96015 ], [ 74.69442, 29.96049 ], [ 74.69562, 29.96179 ], [ 74.69566, 29.96183 ], [ 74.6971, 29.96338 ], [ 74.69769, 29.96402 ], [ 74.69863, 29.96503 ], [ 74.70171, 29.96834 ], [ 74.70175, 29.96837 ], [ 74.70315, 29.96903 ], [ 74.70471, 29.96976 ], [ 74.70481, 29.96981 ], [ 74.70494, 29.96987 ], [ 74.705, 29.9699 ], [ 74.70581, 29.97028 ], [ 74.7062, 29.97047 ], [ 74.70647, 29.97057 ], [ 74.7066, 29.97054 ], [ 74.70727, 29.97041 ], [ 74.70791, 29.97028 ], [ 74.70831, 29.9702 ] ] ] } }
]
}
